STARLINK-36372          
1 67889U 26035L   26065.83334490 -.01198560  43254-3 -31892-2 0  9995
2 67889  97.2718 357.9709 0001205  85.7398 356.3537 15.94621305  3294
STARLINK-36363          
1 67890U 26035M   26065.83334490 -.01219835  44661-3 -32556-2 0  9997
2 67890  97.2724 357.9699 0001276  87.0732 351.4346 15.94567369  3299
STARLINK-36816          
1 67891U 26035N   26065.83334490 -.01459796  62773-3 -37447-2 0  9998
2 67891  97.2707 357.9954 0001341  83.1962  61.5865 15.95347505  3193
STARLINK-36813          
1 67892U 26035P   26065.83334490 -.01237206  46040-3 -32315-2 0  9997
2 67892  97.2698 357.9833 0001248  82.4529  34.1178 15.94976942  3292
STARLINK-36803          
1 67893U 26035Q   26065.83334490 -.01204722  43685-3 -31988-2 0  9992
2 67893  97.2716 357.9729 0001284  89.1344 358.1227 15.94662360  3297
STARLINK-36846          
1 67894U 26035R   26065.83334490 -.01233778  45700-3 -32603-2 0  9991
2 67894  97.2713 357.9772 0001323  90.2179   7.5338 15.94756508  3292
STARLINK-36866          
1 67895U 26035S   26065.83334490 -.01234857  45799-3 -32542-2 0  9991
2 67895  97.2712 357.9791 0001318  77.3342  25.0863 15.94808713  3299
STARLINK-36877          
1 67896U 26035T   26065.83334490 -.01216259  44482-3 -32225-2 0  9994
2 67896  97.2713 357.9749 0001216  76.0238  16.6664 15.94704327  3292
STARLINK-36870          
1 67897U 26035U   26065.83334490 -.01230878  45547-3 -32358-2 0  9998
2 67897  97.2708 357.9808 0001275  85.5244  22.1317 15.94853961  3296
STARLINK-36810          
1 67898U 26035V   26065.83334490 -.01243744  46465-3 -32584-2 0  9996
2 67898  97.2707 357.9825 0001260  79.1543  32.8214 15.94921059  3298
STARLINK-36878          
1 67899U 26035W   26065.83334490 -.01241102  46342-3 -32297-2 0  9998
2 67899  97.2705 357.9861 0001296  91.7319  28.8492 15.95046556  3291
STARLINK-36361          
1 67900U 26035X   26065.83334490 -.01271672  48514-3 -32970-2 0  9997
2 67900  97.2704 357.9880 0001325  90.4324  34.7907 15.95120743  3297
STARLINK-36336          
1 67901U 26035Y   26065.83334490 -.01435200  60816-3 -36851-2 0  9998
2 67901  97.2714 357.9946 0001259  86.8547  52.5268 15.95326405  3341
STARLINK-36876          
1 67902U 26035Z   26065.83334490 -.01317770  51863-3 -34026-2 0  9994
2 67902  97.2712 357.9909 0001326  95.1371  34.2516 15.95203963  3292
STARLINK-36257          
1 67903U 26035AA  26065.83334490 -.01392936  57521-3 -35823-2 0  9995
2 67903  97.2710 357.9917 0001282  81.6762  52.0633 15.95290423  3346
STARLINK-36872          
1 67955U 26037Z   26065.83334490 -.01652380  75284-3 -50096-2 0  9991
2 67955  43.0002 215.9430 0001288 279.6513 320.0052 15.91275477  2731
