[{"OBJECT_NAME":"STARLINK-36372","OBJECT_ID":"2026-035L","EPOCH":"2026-03-06T20:00:00.999360","MEAN_MOTION":15.94621305,"ECCENTRICITY":0.0001205,"INCLINATION":97.2718,"RA_OF_ASC_NODE":357.9709,"ARG_OF_PERICENTER":85.7398,"MEAN_ANOMALY":356.3537,"EPHEMERIS_TYPE":0,"CLASSIFICATION_TYPE":"U","NORAD_CAT_ID":67889,"ELEMENT_SET_NO":999,"REV_AT_EPOCH":329,"BSTAR":-0.0031892,"MEAN_MOTION_DOT":-0.0119856,"MEAN_MOTION_DDOT":0.00043254},{"OBJECT_NAME":"STARLINK-36363","OBJECT_ID":"2026-035M","EPOCH":"2026-03-06T20:00:00.999360","MEAN_MOTION":15.94567369,"ECCENTRICITY":0.0001276,"INCLINATION":97.2724,"RA_OF_ASC_NODE":357.9699,"ARG_OF_PERICENTER":87.0732,"MEAN_ANOMALY":351.4346,"EPHEMERIS_TYPE":0,"CLASSIFICATION_TYPE":"U","NORAD_CAT_ID":67890,"ELEMENT_SET_NO":999,"REV_AT_EPOCH":329,"BSTAR":-0.0032556,"MEAN_MOTION_DOT":-0.01219835,"MEAN_MOTION_DDOT":0.00044661},{"OBJECT_NAME":"STARLINK-36816","OBJECT_ID":"2026-035N","EPOCH":"2026-03-06T20:00:00.999360","MEAN_MOTION":15.95347505,"ECCENTRICITY":0.0001341,"INCLINATION":97.2707,"RA_OF_ASC_NODE":357.9954,"ARG_OF_PERICENTER":83.1962,"MEAN_ANOMALY":61.5865,"EPHEMERIS_TYPE":0,"CLASSIFICATION_TYPE":"U","NORAD_CAT_ID":67891,"ELEMENT_SET_NO":999,"REV_AT_EPOCH":319,"BSTAR":-0.0037447,"MEAN_MOTION_DOT":-0.01459796,"MEAN_MOTION_DDOT":0.00062773},{"OBJECT_NAME":"STARLINK-36813","OBJECT_ID":"2026-035P","EPOCH":"2026-03-06T20:00:00.999360","MEAN_MOTION":15.94976942,"ECCENTRICITY":0.0001248,"INCLINATION":97.2698,"RA_OF_ASC_NODE":357.9833,"ARG_OF_PERICENTER":82.4529,"MEAN_ANOMALY":34.1178,"EPHEMERIS_TYPE":0,"CLASSIFICATION_TYPE":"U","NORAD_CAT_ID":67892,"ELEMENT_SET_NO":999,"REV_AT_EPOCH":329,"BSTAR":-0.0032315,"MEAN_MOTION_DOT":-0.01237206,"MEAN_MOTION_DDOT":0.0004604},{"OBJECT_NAME":"STARLINK-36803","OBJECT_ID":"2026-035Q","EPOCH":"2026-03-06T20:00:00.999360","MEAN_MOTION":15.9466236,"ECCENTRICITY":0.0001284,"INCLINATION":97.2716,"RA_OF_ASC_NODE":357.9729,"ARG_OF_PERICENTER":89.1344,"MEAN_ANOMALY":358.1227,"EPHEMERIS_TYPE":0,"CLASSIFICATION_TYPE":"U","NORAD_CAT_ID":67893,"ELEMENT_SET_NO":999,"REV_AT_EPOCH":329,"BSTAR":-0.0031988,"MEAN_MOTION_DOT":-0.01204722,"MEAN_MOTION_DDOT":0.00043685},{"OBJECT_NAME":"STARLINK-36846","OBJECT_ID":"2026-035R","EPOCH":"2026-03-06T20:00:00.999360","MEAN_MOTION":15.94756508,"ECCENTRICITY":0.0001323,"INCLINATION":97.2713,"RA_OF_ASC_NODE":357.9772,"ARG_OF_PERICENTER":90.2179,"MEAN_ANOMALY":7.5338,"EPHEMERIS_TYPE":0,"CLASSIFICATION_TYPE":"U","NORAD_CAT_ID":67894,"ELEMENT_SET_NO":999,"REV_AT_EPOCH":329,"BSTAR":-0.0032603,"MEAN_MOTION_DOT":-0.01233778,"MEAN_MOTION_DDOT":0.000457},{"OBJECT_NAME":"STARLINK-36866","OBJECT_ID":"2026-035S","EPOCH":"2026-03-06T20:00:00.999360","MEAN_MOTION":15.94808713,"ECCENTRICITY":0.0001318,"INCLINATION":97.2712,"RA_OF_ASC_NODE":357.9791,"ARG_OF_PERICENTER":77.3342,"MEAN_ANOMALY":25.0863,"EPHEMERIS_TYPE":0,"CLASSIFICATION_TYPE":"U","NORAD_CAT_ID":67895,"ELEMENT_SET_NO":999,"REV_AT_EPOCH":329,"BSTAR":-0.0032542,"MEAN_MOTION_DOT":-0.01234857,"MEAN_MOTION_DDOT":0.00045799},{"OBJECT_NAME":"STARLINK-36877","OBJECT_ID":"2026-035T","EPOCH":"2026-03-06T20:00:00.999360","MEAN_MOTION":15.94704327,"ECCENTRICITY":0.0001216,"INCLINATION":97.2713,"RA_OF_ASC_NODE":357.9749,"ARG_OF_PERICENTER":76.0238,"MEAN_ANOMALY":16.6664,"EPHEMERIS_TYPE":0,"CLASSIFICATION_TYPE":"U","NORAD_CAT_ID":67896,"ELEMENT_SET_NO":999,"REV_AT_EPOCH":329,"BSTAR":-0.0032225,"MEAN_MOTION_DOT":-0.01216259,"MEAN_MOTION_DDOT":0.00044482},{"OBJECT_NAME":"STARLINK-36870","OBJECT_ID":"2026-035U","EPOCH":"2026-03-06T20:00:00.999360","MEAN_MOTION":15.94853961,"ECCENTRICITY":0.0001275,"INCLINATION":97.2708,"RA_OF_ASC_NODE":357.9808,"ARG_OF_PERICENTER":85.5244,"MEAN_ANOMALY":22.1317,"EPHEMERIS_TYPE":0,"CLASSIFICATION_TYPE":"U","NORAD_CAT_ID":67897,"ELEMENT_SET_NO":999,"REV_AT_EPOCH":329,"BSTAR":-0.0032358,"MEAN_MOTION_DOT":-0.01230878,"MEAN_MOTION_DDOT":0.00045547},{"OBJECT_NAME":"STARLINK-36810","OBJECT_ID":"2026-035V","EPOCH":"2026-03-06T20:00:00.999360","MEAN_MOTION":15.94921059,"ECCENTRICITY":0.000126,"INCLINATION":97.2707,"RA_OF_ASC_NODE":357.9825,"ARG_OF_PERICENTER":79.1543,"MEAN_ANOMALY":32.8214,"EPHEMERIS_TYPE":0,"CLASSIFICATION_TYPE":"U","NORAD_CAT_ID":67898,"ELEMENT_SET_NO":999,"REV_AT_EPOCH":329,"BSTAR":-0.0032584,"MEAN_MOTION_DOT":-0.01243744,"MEAN_MOTION_DDOT":0.00046465},{"OBJECT_NAME":"STARLINK-36878","OBJECT_ID":"2026-035W","EPOCH":"2026-03-06T20:00:00.999360","MEAN_MOTION":15.95046556,"ECCENTRICITY":0.0001296,"INCLINATION":97.2705,"RA_OF_ASC_NODE":357.9861,"ARG_OF_PERICENTER":91.7319,"MEAN_ANOMALY":28.8492,"EPHEMERIS_TYPE":0,"CLASSIFICATION_TYPE":"U","NORAD_CAT_ID":67899,"ELEMENT_SET_NO":999,"REV_AT_EPOCH":329,"BSTAR":-0.0032297,"MEAN_MOTION_DOT":-0.01241102,"MEAN_MOTION_DDOT":0.00046342},{"OBJECT_NAME":"STARLINK-36361","OBJECT_ID":"2026-035X","EPOCH":"2026-03-06T20:00:00.999360","MEAN_MOTION":15.95120743,"ECCENTRICITY":0.0001325,"INCLINATION":97.2704,"RA_OF_ASC_NODE":357.988,"ARG_OF_PERICENTER":90.4324,"MEAN_ANOMALY":34.7907,"EPHEMERIS_TYPE":0,"CLASSIFICATION_TYPE":"U","NORAD_CAT_ID":67900,"ELEMENT_SET_NO":999,"REV_AT_EPOCH":329,"BSTAR":-0.003297,"MEAN_MOTION_DOT":-0.01271672,"MEAN_MOTION_DDOT":0.00048514},{"OBJECT_NAME":"STARLINK-36336","OBJECT_ID":"2026-035Y","EPOCH":"2026-03-06T20:00:00.999360","MEAN_MOTION":15.95326405,"ECCENTRICITY":0.0001259,"INCLINATION":97.2714,"RA_OF_ASC_NODE":357.9946,"ARG_OF_PERICENTER":86.8547,"MEAN_ANOMALY":52.5268,"EPHEMERIS_TYPE":0,"CLASSIFICATION_TYPE":"U","NORAD_CAT_ID":67901,"ELEMENT_SET_NO":999,"REV_AT_EPOCH":334,"BSTAR":-0.0036851,"MEAN_MOTION_DOT":-0.014352,"MEAN_MOTION_DDOT":0.00060816},{"OBJECT_NAME":"STARLINK-36876","OBJECT_ID":"2026-035Z","EPOCH":"2026-03-06T20:00:00.999360","MEAN_MOTION":15.95203963,"ECCENTRICITY":0.0001326,"INCLINATION":97.2712,"RA_OF_ASC_NODE":357.9909,"ARG_OF_PERICENTER":95.1371,"MEAN_ANOMALY":34.2516,"EPHEMERIS_TYPE":0,"CLASSIFICATION_TYPE":"U","NORAD_CAT_ID":67902,"ELEMENT_SET_NO":999,"REV_AT_EPOCH":329,"BSTAR":-0.0034026,"MEAN_MOTION_DOT":-0.0131777,"MEAN_MOTION_DDOT":0.00051863},{"OBJECT_NAME":"STARLINK-36257","OBJECT_ID":"2026-035AA","EPOCH":"2026-03-06T20:00:00.999360","MEAN_MOTION":15.95290423,"ECCENTRICITY":0.0001282,"INCLINATION":97.271,"RA_OF_ASC_NODE":357.9917,"ARG_OF_PERICENTER":81.6762,"MEAN_ANOMALY":52.0633,"EPHEMERIS_TYPE":0,"CLASSIFICATION_TYPE":"U","NORAD_CAT_ID":67903,"ELEMENT_SET_NO":999,"REV_AT_EPOCH":334,"BSTAR":-0.0035823,"MEAN_MOTION_DOT":-0.01392936,"MEAN_MOTION_DDOT":0.00057521},{"OBJECT_NAME":"STARLINK-36872","OBJECT_ID":"2026-037Z","EPOCH":"2026-03-06T20:00:00.999360","MEAN_MOTION":15.91275477,"ECCENTRICITY":0.0001288,"INCLINATION":43.0002,"RA_OF_ASC_NODE":215.943,"ARG_OF_PERICENTER":279.6513,"MEAN_ANOMALY":320.0052,"EPHEMERIS_TYPE":0,"CLASSIFICATION_TYPE":"U","NORAD_CAT_ID":67955,"ELEMENT_SET_NO":999,"REV_AT_EPOCH":273,"BSTAR":-0.0050096,"MEAN_MOTION_DOT":-0.0165238,"MEAN_MOTION_DDOT":0.00075284}]
